[Satellite]
VERSION=1.1
NAME=BSAT-3C (JCSAT-110R)
NICKNAME=BSAT-3C (JCSAT-110R)
TLE1=1 37776U 11041B   17186.11438139 -.00000355  00000-0  00000-0 0  9994
TLE2=2 37776   0.0164 354.1959 0000321 171.5434 268.6985  1.00270928 17720
